STARLINK-34081          
1 64044U 25102Y   25261.94682436  .00005487  00000+0  46715-3 0  9995
2 64044  70.0027 187.6017 0002748 267.3815  92.7030 14.98338379 20164
STARLINK-34033          
1 64045U 25102Z   25261.92177801  .00005941  00000+0  50513-3 0  9995
2 64045  70.0026 187.5120 0002898 274.6736  85.4092 14.98339940 20158
STARLINK-33952          
1 64046U 25102AA  25261.91342934  .00005531  00000+0  47087-3 0  9993
2 64046  70.0034 187.4832 0002815 262.3061  97.7778 14.98338333 20221
STARLINK-33961          
1 64047U 25102AB  25261.93012778  .00005233  00000+0  44599-3 0  9990
2 64047  70.0029 187.5410 0003127 277.6466  82.4337 14.98336471 20104
STARLINK-11741 [DTC]    
1 64064U 25107A   25261.89825830  .00243396  00000+0  18407-2 0  9992
2 64064  42.9994  54.2841 0002512 299.5822  60.4795 15.70899181 20271
STARLINK-11709 [DTC]    
1 64065U 25107B   25260.92327502  .00190051  00000+0  14466-2 0  9999
2 64065  42.9996  59.8603 0001630 295.5142  64.5557 15.70911992 20122
STARLINK-11737 [DTC]    
1 64066U 25107C   25261.86109364  .00243160  00000+0  18388-2 0  9995
2 64066  42.9989  53.9821 0001744 287.8726  72.1952 15.70902161 20278
STARLINK-11726 [DTC]    
1 64067U 25107D   25261.85047448  .00238861  00000+0  18089-2 0  9999
2 64067  43.0005  53.8970 0001965 287.8879  72.1774 15.70880842 20271
STARLINK-11700 [DTC]    
1 64068U 25107E   25261.44346514  .00022429  00000+0  17756-3 0  9993
2 64068  43.0000  56.8853 0002269 267.6440  92.4168 15.70873604 20201
STARLINK-11649 [DTC]    
1 64069U 25107F   25261.90356438  .00209768  00000+0  15933-2 0  9998
2 64069  42.9994  54.3235 0001840 282.5294  77.5367 15.70899881 20273
STARLINK-11713 [DTC]    
1 64070U 25107G   25261.42662658  .00308339  00000+0  23018-2 0  9998
2 64070  42.9977  56.7488 0002072 264.0259  96.0373 15.71011331 20209
STARLINK-11719 [DTC]    
1 64071U 25107H   25261.88763723  .00110488  00000+0  85179-3 0  9997
2 64071  42.9989  54.1942 0001773 284.4491  75.6180 15.70877801 20278
STARLINK-11733 [DTC]    
1 64072U 25107J   25261.60144887  .00210596  00000+0  16015-2 0  9995
2 64072  42.9982  55.4700 0001399 267.1754  92.8954 15.70869334 20230
STARLINK-11729 [DTC]    
1 64073U 25107K   25261.44786415  .00019176  00000+0  15252-3 0  9991
2 64073  43.0011  56.9187 0002303 256.5729 103.4882 15.70849028 20205
STARLINK-11730 [DTC]    
1 64074U 25107L   25261.43724459  .00196689  00000+0  14945-2 0  9993
2 64074  42.9973  56.8321 0000906 246.0386 114.0387 15.70932261 20200
STARLINK-11723 [DTC]    
1 64075U 25107M   25261.54848343  .00207797  00000+0  15818-2 0  9998
2 64075  43.0000  55.9391 0002918 293.1528  66.9032 15.70852954 20221
