[{"OBJECT_NAME":"STARLINK-34081","OBJECT_ID":"2025-102Y","EPOCH":"2025-09-18T22:43:25.624704","MEAN_MOTION":14.98338379,"ECCENTRICITY":0.00027488,"INCLINATION":70.0027,"RA_OF_ASC_NODE":187.6017,"ARG_OF_PERICENTER":267.3815,"MEAN_ANOMALY":92.703,"EPHEMERIS_TYPE":0,"CLASSIFICATION_TYPE":"U","NORAD_CAT_ID":64044,"ELEMENT_SET_NO":999,"REV_AT_EPOCH":2016,"BSTAR":0.00046715319,"MEAN_MOTION_DOT":5.487e-5,"MEAN_MOTION_DDOT":0},{"OBJECT_NAME":"STARLINK-34033","OBJECT_ID":"2025-102Z","EPOCH":"2025-09-18T22:07:21.620064","MEAN_MOTION":14.9833994,"ECCENTRICITY":0.00028984,"INCLINATION":70.0026,"RA_OF_ASC_NODE":187.512,"ARG_OF_PERICENTER":274.6736,"MEAN_ANOMALY":85.4092,"EPHEMERIS_TYPE":0,"CLASSIFICATION_TYPE":"U","NORAD_CAT_ID":64045,"ELEMENT_SET_NO":999,"REV_AT_EPOCH":2015,"BSTAR":0.00050512909,"MEAN_MOTION_DOT":5.941e-5,"MEAN_MOTION_DDOT":0},{"OBJECT_NAME":"STARLINK-33952","OBJECT_ID":"2025-102AA","EPOCH":"2025-09-18T21:55:20.294976","MEAN_MOTION":14.98338333,"ECCENTRICITY":0.00028155,"INCLINATION":70.0034,"RA_OF_ASC_NODE":187.4832,"ARG_OF_PERICENTER":262.3061,"MEAN_ANOMALY":97.7778,"EPHEMERIS_TYPE":0,"CLASSIFICATION_TYPE":"U","NORAD_CAT_ID":64046,"ELEMENT_SET_NO":999,"REV_AT_EPOCH":2022,"BSTAR":0.0004708723,"MEAN_MOTION_DOT":5.531e-5,"MEAN_MOTION_DDOT":0},{"OBJECT_NAME":"STARLINK-33961","OBJECT_ID":"2025-102AB","EPOCH":"2025-09-18T22:19:23.040192","MEAN_MOTION":14.98336471,"ECCENTRICITY":0.00031278,"INCLINATION":70.0029,"RA_OF_ASC_NODE":187.541,"ARG_OF_PERICENTER":277.6466,"MEAN_ANOMALY":82.4337,"EPHEMERIS_TYPE":0,"CLASSIFICATION_TYPE":"U","NORAD_CAT_ID":64047,"ELEMENT_SET_NO":999,"REV_AT_EPOCH":2010,"BSTAR":0.00044599112,"MEAN_MOTION_DOT":5.233e-5,"MEAN_MOTION_DDOT":0},{"OBJECT_NAME":"STARLINK-11741 [DTC]","OBJECT_ID":"2025-107A","EPOCH":"2025-09-18T21:33:29.517120","MEAN_MOTION":15.70899181,"ECCENTRICITY":0.00025128,"INCLINATION":42.9994,"RA_OF_ASC_NODE":54.2841,"ARG_OF_PERICENTER":299.5822,"MEAN_ANOMALY":60.4795,"EPHEMERIS_TYPE":0,"CLASSIFICATION_TYPE":"U","NORAD_CAT_ID":64064,"ELEMENT_SET_NO":999,"REV_AT_EPOCH":2027,"BSTAR":0.0018406886,"MEAN_MOTION_DOT":0.00243396,"MEAN_MOTION_DDOT":0},{"OBJECT_NAME":"STARLINK-11709 [DTC]","OBJECT_ID":"2025-107B","EPOCH":"2025-09-17T22:09:30.961728","MEAN_MOTION":15.70911992,"ECCENTRICITY":0.00016306,"INCLINATION":42.9996,"RA_OF_ASC_NODE":59.8603,"ARG_OF_PERICENTER":295.5142,"MEAN_ANOMALY":64.5557,"EPHEMERIS_TYPE":0,"CLASSIFICATION_TYPE":"U","NORAD_CAT_ID":64065,"ELEMENT_SET_NO":999,"REV_AT_EPOCH":2012,"BSTAR":0.0014466124,"MEAN_MOTION_DOT":0.00190051,"MEAN_MOTION_DDOT":0},{"OBJECT_NAME":"STARLINK-11737 [DTC]","OBJECT_ID":"2025-107C","EPOCH":"2025-09-18T20:39:58.490496","MEAN_MOTION":15.70902161,"ECCENTRICITY":0.00017447,"INCLINATION":42.9989,"RA_OF_ASC_NODE":53.9821,"ARG_OF_PERICENTER":287.8726,"MEAN_ANOMALY":72.1952,"EPHEMERIS_TYPE":0,"CLASSIFICATION_TYPE":"U","NORAD_CAT_ID":64066,"ELEMENT_SET_NO":999,"REV_AT_EPOCH":2027,"BSTAR":0.0018387852,"MEAN_MOTION_DOT":0.0024316,"MEAN_MOTION_DDOT":0},{"OBJECT_NAME":"STARLINK-11726 [DTC]","OBJECT_ID":"2025-107D","EPOCH":"2025-09-18T20:24:40.995072","MEAN_MOTION":15.70880842,"ECCENTRICITY":0.00019656,"INCLINATION":43.0005,"RA_OF_ASC_NODE":53.897,"ARG_OF_PERICENTER":287.8879,"MEAN_ANOMALY":72.1774,"EPHEMERIS_TYPE":0,"CLASSIFICATION_TYPE":"U","NORAD_CAT_ID":64067,"ELEMENT_SET_NO":999,"REV_AT_EPOCH":2027,"BSTAR":0.0018088866,"MEAN_MOTION_DOT":0.00238861,"MEAN_MOTION_DDOT":0},{"OBJECT_NAME":"STARLINK-11700 [DTC]","OBJECT_ID":"2025-107E","EPOCH":"2025-09-18T10:38:35.388096","MEAN_MOTION":15.70873604,"ECCENTRICITY":0.00022696,"INCLINATION":43,"RA_OF_ASC_NODE":56.8853,"ARG_OF_PERICENTER":267.644,"MEAN_ANOMALY":92.4168,"EPHEMERIS_TYPE":0,"CLASSIFICATION_TYPE":"U","NORAD_CAT_ID":64068,"ELEMENT_SET_NO":999,"REV_AT_EPOCH":2020,"BSTAR":0.0001775577,"MEAN_MOTION_DOT":0.00022429,"MEAN_MOTION_DDOT":0},{"OBJECT_NAME":"STARLINK-11649 [DTC]","OBJECT_ID":"2025-107F","EPOCH":"2025-09-18T21:41:07.962432","MEAN_MOTION":15.70899881,"ECCENTRICITY":0.00018409,"INCLINATION":42.9994,"RA_OF_ASC_NODE":54.3235,"ARG_OF_PERICENTER":282.5294,"MEAN_ANOMALY":77.5367,"EPHEMERIS_TYPE":0,"CLASSIFICATION_TYPE":"U","NORAD_CAT_ID":64069,"ELEMENT_SET_NO":999,"REV_AT_EPOCH":2027,"BSTAR":0.0015933309,"MEAN_MOTION_DOT":0.00209768,"MEAN_MOTION_DDOT":0},{"OBJECT_NAME":"STARLINK-11713 [DTC]","OBJECT_ID":"2025-107G","EPOCH":"2025-09-18T10:14:20.536512","MEAN_MOTION":15.71011331,"ECCENTRICITY":0.00020723,"INCLINATION":42.9977,"RA_OF_ASC_NODE":56.7488,"ARG_OF_PERICENTER":264.0259,"MEAN_ANOMALY":96.0373,"EPHEMERIS_TYPE":0,"CLASSIFICATION_TYPE":"U","NORAD_CAT_ID":64070,"ELEMENT_SET_NO":999,"REV_AT_EPOCH":2020,"BSTAR":0.0023018078,"MEAN_MOTION_DOT":0.00308339,"MEAN_MOTION_DDOT":0},{"OBJECT_NAME":"STARLINK-11719 [DTC]","OBJECT_ID":"2025-107H","EPOCH":"2025-09-18T21:18:11.856672","MEAN_MOTION":15.70877801,"ECCENTRICITY":0.00017738,"INCLINATION":42.9989,"RA_OF_ASC_NODE":54.1942,"ARG_OF_PERICENTER":284.4491,"MEAN_ANOMALY":75.618,"EPHEMERIS_TYPE":0,"CLASSIFICATION_TYPE":"U","NORAD_CAT_ID":64071,"ELEMENT_SET_NO":999,"REV_AT_EPOCH":2027,"BSTAR":0.00085178507,"MEAN_MOTION_DOT":0.00110488,"MEAN_MOTION_DDOT":0},{"OBJECT_NAME":"STARLINK-11733 [DTC]","OBJECT_ID":"2025-107J","EPOCH":"2025-09-18T14:26:05.182368","MEAN_MOTION":15.70869334,"ECCENTRICITY":0.00013991,"INCLINATION":42.9982,"RA_OF_ASC_NODE":55.47,"ARG_OF_PERICENTER":267.1754,"MEAN_ANOMALY":92.8954,"EPHEMERIS_TYPE":0,"CLASSIFICATION_TYPE":"U","NORAD_CAT_ID":64072,"ELEMENT_SET_NO":999,"REV_AT_EPOCH":2023,"BSTAR":0.001601507,"MEAN_MOTION_DOT":0.00210596,"MEAN_MOTION_DDOT":0},{"OBJECT_NAME":"STARLINK-11729 [DTC]","OBJECT_ID":"2025-107K","EPOCH":"2025-09-18T10:44:55.462560","MEAN_MOTION":15.70849028,"ECCENTRICITY":0.00023035,"INCLINATION":43.0011,"RA_OF_ASC_NODE":56.9187,"ARG_OF_PERICENTER":256.5729,"MEAN_ANOMALY":103.4882,"EPHEMERIS_TYPE":0,"CLASSIFICATION_TYPE":"U","NORAD_CAT_ID":64073,"ELEMENT_SET_NO":999,"REV_AT_EPOCH":2020,"BSTAR":0.00015252487,"MEAN_MOTION_DOT":0.00019176,"MEAN_MOTION_DDOT":0},{"OBJECT_NAME":"STARLINK-11730 [DTC]","OBJECT_ID":"2025-107L","EPOCH":"2025-09-18T10:29:37.932576","MEAN_MOTION":15.70932261,"ECCENTRICITY":9.061e-5,"INCLINATION":42.9973,"RA_OF_ASC_NODE":56.8321,"ARG_OF_PERICENTER":246.0386,"MEAN_ANOMALY":114.0387,"EPHEMERIS_TYPE":0,"CLASSIFICATION_TYPE":"U","NORAD_CAT_ID":64074,"ELEMENT_SET_NO":999,"REV_AT_EPOCH":2020,"BSTAR":0.0014945435,"MEAN_MOTION_DOT":0.00196689,"MEAN_MOTION_DDOT":0},{"OBJECT_NAME":"STARLINK-11723 [DTC]","OBJECT_ID":"2025-107M","EPOCH":"2025-09-18T13:09:48.968352","MEAN_MOTION":15.70852954,"ECCENTRICITY":0.00029184,"INCLINATION":43,"RA_OF_ASC_NODE":55.9391,"ARG_OF_PERICENTER":293.1528,"MEAN_ANOMALY":66.9032,"EPHEMERIS_TYPE":0,"CLASSIFICATION_TYPE":"U","NORAD_CAT_ID":64075,"ELEMENT_SET_NO":999,"REV_AT_EPOCH":2022,"BSTAR":0.0015817566,"MEAN_MOTION_DOT":0.00207797,"MEAN_MOTION_DDOT":0}]
